CubeSX-Sirius-HSE
1 47951U 21022V   25067.78112759  .00103398  00000-0  14214-2 0  9991
2 47951  97.4300 335.9071 0003367 264.3260  95.7611 15.56934318219243
CubeSX-HSE
1 47952U 21022W   25067.68939090  .00103124  00000-0  13866-2 0  9995
2 47952  97.4301 336.0085 0003402 249.5435 110.5455 15.57532012219249
KSU-Cubesat
1 47954U 21022Y   25067.73961914  .00545310  11437-3  19394-2 0  9991
2 47954  97.4234 340.9527 0005337 147.2526 212.9077 15.88907716219287
GRBAlpha
1 47959U 21022AD  25067.78233853  .00103483  00000-0  14015-2 0  9992
2 47959  97.4289 336.2552 0003364 261.3633  98.7241 15.57336483218086
Orbicraft-Zorkiy
1 47960U 21022AE  25067.73425664  .00229914  00000-0  17148-2 0  9990
2 47960  97.4268 339.7001 0002606 170.9213 189.2097 15.72061466218964
TUBIN
1 48900U 21059X   25067.71748259  .00047477  00000-0  84392-3 0  9999
2 48900  97.6685 230.1338 0004982 224.5820 135.5031 15.50026376205606
LEDSAT
1 49069U 21073D   25067.78406785  .00055890  00000-0  10988-2 0  9991
2 49069  97.3992 146.3427 0011698  61.0341 299.2080 15.47027641197022
CUTE
1 49263U 21088D   25067.73559441  .00017490  00000-0  40506-3 0  9990
2 49263  97.4602 141.5544 0009068 212.5988 147.4700 15.42467642190099
TeikyoSat 4
1 49396U 21102B   25067.54882134  .00003045  00000-0  20718-3 0  9995
2 49396  97.4239 109.3062 0014379  92.9884 267.2989 15.06957365182531
Z-Sat
1 49399U 21102E   25067.81751641  .00006716  00000-0  38109-3 0  9997
2 49399  97.3946 112.1229 0019962  68.3269 292.0085 15.13098624182942
KOSEN 1
1 49402U 21102H   25067.68257946  .00010656  00000-0  52120-3 0  9993
2 49402  97.3855 114.7477 0017419  48.3477 311.9245 15.18253480183187
HO-113
1 50466U 21131B   25067.76820270  .00001007  00000-0  32966-3 0  9998
2 50466  98.5105 157.5979 0004989  64.8786 295.2919 14.40596242168080
IRIS-A
1 51044U 22002BN  25067.72965003  .00110758  00000-0  12372-2 0  9991
2 51044  97.3392 143.4669 0004108 173.1903 186.9412 15.62393991175236
Foresail-1
1 52766U 22057AL  25066.87219252  .00088894  00000-0  10379-2 0  9996
2 52766  97.5996 209.8366 0007119 260.6418  99.4034 15.61299715155132
SNUGLITE 2
1 52899U 22065F   25067.20379679  .00002235  00000-0  44758-3 0  9994
2 52899  98.1514 210.1910 0008209  52.5714 307.6234 14.62750936142836
IO-117
1 53106U 22080B   25051.21822557 -.00000003  00000-0  00000 0 0  9995
2 53106  70.1434 106.3440 0008542  48.0089 312.1297  6.42557744 61200
UmKA 1 (RS40S)
1 57172U 23091G   25067.78587803  .00008304  00000-0  46550-3 0  9991
2 57172  97.5722 123.6918 0013582 296.3536  63.6300 15.13570860 93432
CubeBel-2 (EU11S)
1 57175U 23091K   25067.83212802  .00014050  00000-0  72172-3 0  9998
2 57175  97.5723 124.3862 0011680 306.3874  53.6280 15.16548381 93483
VERONIKA
1 58261U 23174F   25067.76231926  .00077833  00000-0  14801-2 0  9999
2 58261  97.4237 149.9800 0005907  16.7396 343.4048 15.47953691 74221
KAFASAT
1 58317U 23174BP  25067.77728917  .00328174  00000-0  21459-2 0  9997
2 58317  97.4091 153.9992 0006022 294.7976  65.2662 15.74867780 74515
ENSO
1 58470U 23185J   25067.82297791  .00049651  00000-0  10816-2 0  9991
2 58470  97.3853 140.7045 0008131  61.5793 298.6273 15.44083397 70666
EIRSAT-1
1 58472U 23185L   25067.78087867  .00066022  00000-0  12214-2 0  9994
2 58472  97.3847 141.4815 0006610  60.5514 299.6396 15.48790530 70715
SONATE-2
1 59112U 24043Q   25067.85229602  .00025139  00000-0  83684-3 0  9997
2 59112  97.4986 197.5372 0012103  85.9959 274.2665 15.31056321 56122
MO-122
1 60209U 24125G   25067.49243985  .00021125  00000-0  69436-3 0  9997
2 60209  97.2928 280.3586 0021909 109.7541 250.6066 15.31332440 37681
GRBBeta
1 60237U 24128C   25067.47131288  .00007711  00000-0  60138-3 0  9996
2 60237  61.9929  43.9087 0043273  36.5239 323.8789 15.01203685 36217
Curium One
1 60242U 24128H   25067.30463900  .00011443  00000-0  84930-3 0  9996
2 60242  61.9830  43.9451 0043590  31.6117 328.7578 15.02708726 36208
ROBUSTA-3A
1 60243U 24128J   25067.21487439  .00011722  00000-0  87999-3 0  9998
2 60243  61.9899  44.7999 0041777  29.4904 330.8531 15.02321886 36182
CatSat
1 60246U 24125J   25067.64213935  .00013963  00000-0  50162-3 0  9994
2 60246  97.2716 280.6581 0046442  65.9278 294.6810 15.27718400 35787
HYPERVIEW-1G (RS66S)
1 61772U 24199AP  25067.80003610  .00026927  00000-0  92297-3 0  9994
2 61772  97.3700 297.0888 0015619 158.9699 201.2187 15.30044864 62747
AO-123
1 61781U 24199AY  25067.82137043  .00011505  00000-0  44384-3 0  9994
2 61781  97.3708 296.7698 0016955 160.8819 199.3060 15.26323429 62727
ZIMSAT 2
1 61783U 24199BA  25067.74723129  .00038918  00000-0  12490-2 0  9992
2 61783  97.3695 297.1531 0016484 158.4021 201.7919 15.32077659 65890
POEM 4 (BGS ARPIT)
1 62461U 24253C   25067.74319427  .00258708  35877-4  77743-3 0  9997
2 62461  55.2161 290.3251 0007180 120.9887 239.1873 15.91845046 10742
HADES-R (SO-124)
1 62690U 25009CK  25067.18155321  .00037225  00000-0  17239-2 0  9998
2 62690  97.4168 148.8929 0002344  75.1807 284.9688 15.20002723  7916
